SZ-21 MODULE            
1 66515U 25246C   25335.73443365  .00029753  00000+0  33760-3 0  9992
2 66515  41.4764  83.1398 0005616 194.9686 165.0987 15.61686095  2728
SHENZHOU-22             
1 66645U 25272A   25335.63098376  .00019534  00000+0  25188-3 0  9993
2 66645  41.4671  84.1132 0010396 308.0304  51.9595 15.58480820262306
CZ-2F R/B               
1 66646U 25272B   25330.47076975  .00449059  75676-5  29319-3 0  9998
2 66646  41.4431 114.9009 0121079 133.7676 227.3272 16.01945612   217
SOYUZ-MS 28             
1 66664U 25275A   25335.57620886  .00008648  00000+0  16366-3 0  9999
2 66664  51.6309 197.7449 0003647 190.9481 169.1428 15.49226524   716
